JAS-2 (FO-29)           
1 24278U 96046B   26094.89273115  .00000012  00000+0  51476-4 0  9994
2 24278  98.5335 313.7629 0348885 286.6943  69.6180 13.53270553463257
FORTE                   
1 24920U 97047A   26094.68243311  .00000308  00000+0  14729-3 0  9999
2 24920  69.9537 180.0440 0021145  11.0948 349.0636 14.27914016488197
NOAA 15                 
1 25338U 98030A   26094.92032976  .00000219  00000+0  10712-3 0  9995
2 25338  98.5131 117.5134 0009925 195.7513 164.3361 14.27123734450847
TECHSAT 1B (GO-32)      
1 25397U 98043D   26094.94105973  .00000106  00000+0  65949-4 0  9992
2 25397  99.0052  85.8619 0002306  77.1698 282.9737 14.24413608440907
ISS (ZARYA)             
1 25544U 98067A   26094.84355279  .00009370  00000+0  17936-3 0  9991
2 25544  51.6331 303.0545 0006326 272.5089  87.5175 15.48773610560388
ORSTED                  
1 25635U 99008B   26094.77759425  .00001321  00000+0  29989-3 0  9990
2 25635  96.4830  18.9651 0133530  62.4637 299.0058 14.51725929431316
LANDSAT 7               
1 25682U 99020A   26094.96387808  .00000677  00000+0  13812-3 0  9990
2 25682  97.8604 101.9543 0001298  78.5789 311.5886 14.63854174435137
ORBCOMM FM36            
1 25984U 99065E   26094.87133365  .00001476  00000+0  51885-3 0  9991
2 25984  45.0381 147.6006 0004237 295.7105  64.3306 14.39056157376425
DMSP 5D-3 F15 (USA 147) 
1 25991U 99067A   26094.89549392  .00000210  00000+0  12586-3 0  9994
2 25991  99.0047 132.5084 0009617 205.5412 256.9437 14.17536033360268
OPAL (OO-38)            
1 26063U 00004C   26094.76885436  .00000278  00000+0  11097-3 0  9996
2 26063 100.1891  18.0664 0035128 242.2014 117.5605 14.37938455372734
IMAGE                   
1 26113U 00017A   26093.56913830  .00000069  00000+0  23761-2 0  9991
2 26113  94.1690 314.3777 7488522 296.3083   7.4714  1.68665511160248
CLUSTER II-FM7 (SAMBA)  
1 26410U 00041A   26090.03773165  .00002444  00000+0  00000+0 0  9999
2 26410 149.3581  38.1493 8953066 254.4502   0.4223  0.44796982 19968
CLUSTER II-FM8 (TANGO)  
1 26464U 00045B   26094.11120259  .00003194  00000+0  00000+0 0  9998
2 26464 149.6837  39.5667 8962149 255.7736   0.6086  0.44400104 19975
MEGSAT-1                
1 26546U 00057B   26094.93144310  .00004235  00000+0  30408-3 0  9992
2 26546  64.5504 303.7826 0039206 291.6008  68.0934 15.05082767386631
PHASE 3D (AO-40)        
1 26609U 00072B   26088.95542898 -.00000317  00000+0  00000+0 0  9996
2 26609   9.5411   3.2104 7938958 153.6172 292.5885  1.25588345116513
ODIN                    
1 26702U 01007A   26094.64288138  .00061919  00000+0  72458-3 0  9990
2 26702  97.4009 131.7951 0004535  86.2418 273.9358 15.61358498377881
OMNI-M1                 
1 26857U 01026A   26092.29880186 -.00000028  00000+0  00000+0 0  9997
2 26857  44.8633 262.7500 0016940  37.5963 322.5250  3.92401908202596
