[{"OBJECT_NAME":"JAS-2 (FO-29)","OBJECT_ID":"1996-046B","EPOCH":"2026-04-04T21:25:31.971360","MEAN_MOTION":13.53270553,"ECCENTRICITY":0.0348885,"INCLINATION":98.5335,"RA_OF_ASC_NODE":313.7629,"ARG_OF_PERICENTER":286.6943,"MEAN_ANOMALY":69.618,"EPHEMERIS_TYPE":0,"CLASSIFICATION_TYPE":"U","NORAD_CAT_ID":24278,"ELEMENT_SET_NO":999,"REV_AT_EPOCH":46325,"BSTAR":5.1476203e-5,"MEAN_MOTION_DOT":1.2e-7,"MEAN_MOTION_DDOT":0},{"OBJECT_NAME":"FORTE","OBJECT_ID":"1997-047A","EPOCH":"2026-04-04T16:22:42.220704","MEAN_MOTION":14.27914016,"ECCENTRICITY":0.00211456,"INCLINATION":69.9537,"RA_OF_ASC_NODE":180.044,"ARG_OF_PERICENTER":11.0948,"MEAN_ANOMALY":349.0636,"EPHEMERIS_TYPE":0,"CLASSIFICATION_TYPE":"U","NORAD_CAT_ID":24920,"ELEMENT_SET_NO":999,"REV_AT_EPOCH":48819,"BSTAR":0.00014728681,"MEAN_MOTION_DOT":3.08e-6,"MEAN_MOTION_DDOT":0},{"OBJECT_NAME":"NOAA 15","OBJECT_ID":"1998-030A","EPOCH":"2026-04-04T22:05:16.491264","MEAN_MOTION":14.27123734,"ECCENTRICITY":0.00099256,"INCLINATION":98.5131,"RA_OF_ASC_NODE":117.5134,"ARG_OF_PERICENTER":195.7513,"MEAN_ANOMALY":164.3361,"EPHEMERIS_TYPE":0,"CLASSIFICATION_TYPE":"U","NORAD_CAT_ID":25338,"ELEMENT_SET_NO":999,"REV_AT_EPOCH":45084,"BSTAR":0.00010711557,"MEAN_MOTION_DOT":2.19e-6,"MEAN_MOTION_DDOT":0},{"OBJECT_NAME":"TECHSAT 1B (GO-32)","OBJECT_ID":"1998-043D","EPOCH":"2026-04-04T22:35:07.560672","MEAN_MOTION":14.24413608,"ECCENTRICITY":0.00023062,"INCLINATION":99.0052,"RA_OF_ASC_NODE":85.8619,"ARG_OF_PERICENTER":77.1698,"MEAN_ANOMALY":282.9737,"EPHEMERIS_TYPE":0,"CLASSIFICATION_TYPE":"U","NORAD_CAT_ID":25397,"ELEMENT_SET_NO":999,"REV_AT_EPOCH":44090,"BSTAR":6.5949298e-5,"MEAN_MOTION_DOT":1.06e-6,"MEAN_MOTION_DDOT":0},{"OBJECT_NAME":"ISS (ZARYA)","OBJECT_ID":"1998-067A","EPOCH":"2026-04-04T20:14:42.961056","MEAN_MOTION":15.4877361,"ECCENTRICITY":0.0006326,"INCLINATION":51.6331,"RA_OF_ASC_NODE":303.0545,"ARG_OF_PERICENTER":272.5089,"MEAN_ANOMALY":87.5175,"EPHEMERIS_TYPE":0,"CLASSIFICATION_TYPE":"U","NORAD_CAT_ID":25544,"ELEMENT_SET_NO":999,"REV_AT_EPOCH":56038,"BSTAR":0.00017935557,"MEAN_MOTION_DOT":9.37e-5,"MEAN_MOTION_DDOT":0},{"OBJECT_NAME":"ORSTED","OBJECT_ID":"1999-008B","EPOCH":"2026-04-04T18:39:44.143200","MEAN_MOTION":14.51725929,"ECCENTRICITY":0.01335305,"INCLINATION":96.483,"RA_OF_ASC_NODE":18.9651,"ARG_OF_PERICENTER":62.4637,"MEAN_ANOMALY":299.0058,"EPHEMERIS_TYPE":0,"CLASSIFICATION_TYPE":"U","NORAD_CAT_ID":25635,"ELEMENT_SET_NO":999,"REV_AT_EPOCH":43131,"BSTAR":0.00029989456,"MEAN_MOTION_DOT":1.321e-5,"MEAN_MOTION_DDOT":0},{"OBJECT_NAME":"LANDSAT 7","OBJECT_ID":"1999-020A","EPOCH":"2026-04-04T23:07:59.066112","MEAN_MOTION":14.63854174,"ECCENTRICITY":0.00012988,"INCLINATION":97.8604,"RA_OF_ASC_NODE":101.9543,"ARG_OF_PERICENTER":78.5789,"MEAN_ANOMALY":311.5886,"EPHEMERIS_TYPE":0,"CLASSIFICATION_TYPE":"U","NORAD_CAT_ID":25682,"ELEMENT_SET_NO":999,"REV_AT_EPOCH":43513,"BSTAR":0.0001381158,"MEAN_MOTION_DOT":6.77e-6,"MEAN_MOTION_DDOT":0},{"OBJECT_NAME":"ORBCOMM FM36","OBJECT_ID":"1999-065E","EPOCH":"2026-04-04T20:54:43.227360","MEAN_MOTION":14.39056157,"ECCENTRICITY":0.00042371,"INCLINATION":45.0381,"RA_OF_ASC_NODE":147.6006,"ARG_OF_PERICENTER":295.7105,"MEAN_ANOMALY":64.3306,"EPHEMERIS_TYPE":0,"CLASSIFICATION_TYPE":"U","NORAD_CAT_ID":25984,"ELEMENT_SET_NO":999,"REV_AT_EPOCH":37642,"BSTAR":0.00051885455,"MEAN_MOTION_DOT":1.476e-5,"MEAN_MOTION_DDOT":0},{"OBJECT_NAME":"DMSP 5D-3 F15 (USA 147)","OBJECT_ID":"1999-067A","EPOCH":"2026-04-04T21:29:30.674688","MEAN_MOTION":14.17536033,"ECCENTRICITY":0.00096179,"INCLINATION":99.0047,"RA_OF_ASC_NODE":132.5084,"ARG_OF_PERICENTER":205.5412,"MEAN_ANOMALY":256.9437,"EPHEMERIS_TYPE":0,"CLASSIFICATION_TYPE":"U","NORAD_CAT_ID":25991,"ELEMENT_SET_NO":999,"REV_AT_EPOCH":36026,"BSTAR":0.00012585939,"MEAN_MOTION_DOT":2.1e-6,"MEAN_MOTION_DDOT":0},{"OBJECT_NAME":"OPAL (OO-38)","OBJECT_ID":"2000-004C","EPOCH":"2026-04-04T18:27:09.016704","MEAN_MOTION":14.37938455,"ECCENTRICITY":0.00351282,"INCLINATION":100.1891,"RA_OF_ASC_NODE":18.0664,"ARG_OF_PERICENTER":242.2014,"MEAN_ANOMALY":117.5605,"EPHEMERIS_TYPE":0,"CLASSIFICATION_TYPE":"U","NORAD_CAT_ID":26063,"ELEMENT_SET_NO":999,"REV_AT_EPOCH":37273,"BSTAR":0.00011097019,"MEAN_MOTION_DOT":2.78e-6,"MEAN_MOTION_DDOT":0},{"OBJECT_NAME":"IMAGE","OBJECT_ID":"2000-017A","EPOCH":"2026-04-03T13:39:33.549120","MEAN_MOTION":1.68665511,"ECCENTRICITY":0.74885227,"INCLINATION":94.169,"RA_OF_ASC_NODE":314.3777,"ARG_OF_PERICENTER":296.3083,"MEAN_ANOMALY":7.4714,"EPHEMERIS_TYPE":0,"CLASSIFICATION_TYPE":"U","NORAD_CAT_ID":26113,"ELEMENT_SET_NO":999,"REV_AT_EPOCH":16024,"BSTAR":0.002376075,"MEAN_MOTION_DOT":6.9e-7,"MEAN_MOTION_DDOT":0},{"OBJECT_NAME":"CLUSTER II-FM7 (SAMBA)","OBJECT_ID":"2000-041A","EPOCH":"2026-03-31T00:54:20.014560","MEAN_MOTION":0.44796982,"ECCENTRICITY":0.89530667,"INCLINATION":149.3581,"RA_OF_ASC_NODE":38.1493,"ARG_OF_PERICENTER":254.4502,"MEAN_ANOMALY":0.4223,"EPHEMERIS_TYPE":0,"CLASSIFICATION_TYPE":"U","NORAD_CAT_ID":26410,"ELEMENT_SET_NO":999,"REV_AT_EPOCH":1996,"BSTAR":0,"MEAN_MOTION_DOT":2.444e-5,"MEAN_MOTION_DDOT":0},{"OBJECT_NAME":"CLUSTER II-FM8 (TANGO)","OBJECT_ID":"2000-045B","EPOCH":"2026-04-04T02:40:07.903776","MEAN_MOTION":0.44400104,"ECCENTRICITY":0.89621495,"INCLINATION":149.6837,"RA_OF_ASC_NODE":39.5667,"ARG_OF_PERICENTER":255.7736,"MEAN_ANOMALY":0.6086,"EPHEMERIS_TYPE":0,"CLASSIFICATION_TYPE":"U","NORAD_CAT_ID":26464,"ELEMENT_SET_NO":999,"REV_AT_EPOCH":1997,"BSTAR":0,"MEAN_MOTION_DOT":3.194e-5,"MEAN_MOTION_DDOT":0},{"OBJECT_NAME":"MEGSAT-1","OBJECT_ID":"2000-057B","EPOCH":"2026-04-04T22:21:16.683840","MEAN_MOTION":15.05082767,"ECCENTRICITY":0.00392065,"INCLINATION":64.5504,"RA_OF_ASC_NODE":303.7826,"ARG_OF_PERICENTER":291.6008,"MEAN_ANOMALY":68.0934,"EPHEMERIS_TYPE":0,"CLASSIFICATION_TYPE":"U","NORAD_CAT_ID":26546,"ELEMENT_SET_NO":999,"REV_AT_EPOCH":38663,"BSTAR":0.00030408178,"MEAN_MOTION_DOT":4.235e-5,"MEAN_MOTION_DDOT":0},{"OBJECT_NAME":"PHASE 3D (AO-40)","OBJECT_ID":"2000-072B","EPOCH":"2026-03-29T22:55:49.063872","MEAN_MOTION":1.25588345,"ECCENTRICITY":0.79389589,"INCLINATION":9.5411,"RA_OF_ASC_NODE":3.2104,"ARG_OF_PERICENTER":153.6172,"MEAN_ANOMALY":292.5885,"EPHEMERIS_TYPE":0,"CLASSIFICATION_TYPE":"U","NORAD_CAT_ID":26609,"ELEMENT_SET_NO":999,"REV_AT_EPOCH":11651,"BSTAR":0,"MEAN_MOTION_DOT":-3.17e-6,"MEAN_MOTION_DDOT":0},{"OBJECT_NAME":"ODIN","OBJECT_ID":"2001-007A","EPOCH":"2026-04-04T15:25:44.951232","MEAN_MOTION":15.61358498,"ECCENTRICITY":0.0004535,"INCLINATION":97.4009,"RA_OF_ASC_NODE":131.7951,"ARG_OF_PERICENTER":86.2418,"MEAN_ANOMALY":273.9358,"EPHEMERIS_TYPE":0,"CLASSIFICATION_TYPE":"U","NORAD_CAT_ID":26702,"ELEMENT_SET_NO":999,"REV_AT_EPOCH":37788,"BSTAR":0.00072458,"MEAN_MOTION_DOT":0.00061919,"MEAN_MOTION_DDOT":0},{"OBJECT_NAME":"OMNI-M1","OBJECT_ID":"2001-026A","EPOCH":"2026-04-02T07:10:16.480704","MEAN_MOTION":3.92401908,"ECCENTRICITY":0.00169402,"INCLINATION":44.8633,"RA_OF_ASC_NODE":262.75,"ARG_OF_PERICENTER":37.5963,"MEAN_ANOMALY":322.525,"EPHEMERIS_TYPE":0,"CLASSIFICATION_TYPE":"U","NORAD_CAT_ID":26857,"ELEMENT_SET_NO":999,"REV_AT_EPOCH":20259,"BSTAR":0,"MEAN_MOTION_DOT":-2.8e-7,"MEAN_MOTION_DDOT":0}]
